<?xml version="1.0" encoding="UTF-8"?>
<ndm xmlns:xsi="http://www.w3.org/2001/XMLSchema-instance" xsi:noNamespaceSchemaLocation="https://sanaregistry.org/r/ndmxml_unqualified/ndmxml-2.0.0-master-2.0.xsd">
<omm id="CCSDS_OMM_VERS" version="2.0">
<header><CREATION_DATE/><ORIGINATOR/></header><body><segment><metadata><OBJECT_NAME>KUIPER-00095</OBJECT_NAME><OBJECT_ID>2025-171C</OBJECT_ID><CENTER_NAME>EARTH</CENTER_NAME><REF_FRAME>TEME</REF_FRAME><TIME_SYSTEM>UTC</TIME_SYSTEM><MEAN_ELEMENT_THEORY>SGP4</MEAN_ELEMENT_THEORY></metadata><data><meanElements><EPOCH>2025-10-18T02:59:23.439840</EPOCH><MEAN_MOTION>15.37239243</MEAN_MOTION><ECCENTRICITY>.00044486</ECCENTRICITY><INCLINATION>51.8731</INCLINATION><RA_OF_ASC_NODE>78.5241</RA_OF_ASC_NODE><ARG_OF_PERICENTER>25.7785</ARG_OF_PERICENTER><MEAN_ANOMALY>334.3422</MEAN_ANOMALY></meanElements><tleParameters><EPHEMERIS_TYPE>0</EPHEMERIS_TYPE><CLASSIFICATION_TYPE>U</CLASSIFICATION_TYPE><NORAD_CAT_ID>65134</NORAD_CAT_ID><ELEMENT_SET_NO>999</ELEMENT_SET_NO><REV_AT_EPOCH>1164</REV_AT_EPOCH><BSTAR>.1595252E-2</BSTAR><MEAN_MOTION_DOT>.59182E-3</MEAN_MOTION_DOT><MEAN_MOTION_DDOT>0</MEAN_MOTION_DDOT></tleParameters></data></segment></body></omm>
<omm id="CCSDS_OMM_VERS" version="2.0">
<header><CREATION_DATE/><ORIGINATOR/></header><body><segment><metadata><OBJECT_NAME>KUIPER-00096</OBJECT_NAME><OBJECT_ID>2025-171D</OBJECT_ID><CENTER_NAME>EARTH</CENTER_NAME><REF_FRAME>TEME</REF_FRAME><TIME_SYSTEM>UTC</TIME_SYSTEM><MEAN_ELEMENT_THEORY>SGP4</MEAN_ELEMENT_THEORY></metadata><data><meanElements><EPOCH>2025-10-18T06:00:02.999808</EPOCH><MEAN_MOTION>15.34480807</MEAN_MOTION><ECCENTRICITY>.00057335</ECCENTRICITY><INCLINATION>51.8749</INCLINATION><RA_OF_ASC_NODE>77.7865</RA_OF_ASC_NODE><ARG_OF_PERICENTER>23.2319</ARG_OF_PERICENTER><MEAN_ANOMALY>15.7487</MEAN_ANOMALY></meanElements><tleParameters><EPHEMERIS_TYPE>0</EPHEMERIS_TYPE><CLASSIFICATION_TYPE>U</CLASSIFICATION_TYPE><NORAD_CAT_ID>65135</NORAD_CAT_ID><ELEMENT_SET_NO>999</ELEMENT_SET_NO><REV_AT_EPOCH>574</REV_AT_EPOCH><BSTAR>-.17225278E-1</BSTAR><MEAN_MOTION_DOT>-.544645E-2</MEAN_MOTION_DOT><MEAN_MOTION_DDOT>0</MEAN_MOTION_DDOT></tleParameters></data></segment></body></omm>
<omm id="CCSDS_OMM_VERS" version="2.0">
<header><CREATION_DATE/><ORIGINATOR/></header><body><segment><metadata><OBJECT_NAME>KUIPER-00097</OBJECT_NAME><OBJECT_ID>2025-171E</OBJECT_ID><CENTER_NAME>EARTH</CENTER_NAME><REF_FRAME>TEME</REF_FRAME><TIME_SYSTEM>UTC</TIME_SYSTEM><MEAN_ELEMENT_THEORY>SGP4</MEAN_ELEMENT_THEORY></metadata><data><meanElements><EPOCH>2025-10-18T06:00:02.999808</EPOCH><MEAN_MOTION>15.27329774</MEAN_MOTION><ECCENTRICITY>.00036997</ECCENTRICITY><INCLINATION>51.8792</INCLINATION><RA_OF_ASC_NODE>78.2799</RA_OF_ASC_NODE><ARG_OF_PERICENTER>17.9873</ARG_OF_PERICENTER><MEAN_ANOMALY>117.7706</MEAN_ANOMALY></meanElements><tleParameters><EPHEMERIS_TYPE>0</EPHEMERIS_TYPE><CLASSIFICATION_TYPE>U</CLASSIFICATION_TYPE><NORAD_CAT_ID>65136</NORAD_CAT_ID><ELEMENT_SET_NO>999</ELEMENT_SET_NO><REV_AT_EPOCH>482</REV_AT_EPOCH><BSTAR>.27100041E-2</BSTAR><MEAN_MOTION_DOT>.73962E-3</MEAN_MOTION_DOT><MEAN_MOTION_DDOT>0</MEAN_MOTION_DDOT></tleParameters></data></segment></body></omm>
<omm id="CCSDS_OMM_VERS" version="2.0">
<header><CREATION_DATE/><ORIGINATOR/></header><body><segment><metadata><OBJECT_NAME>KUIPER-00098</OBJECT_NAME><OBJECT_ID>2025-171F</OBJECT_ID><CENTER_NAME>EARTH</CENTER_NAME><REF_FRAME>TEME</REF_FRAME><TIME_SYSTEM>UTC</TIME_SYSTEM><MEAN_ELEMENT_THEORY>SGP4</MEAN_ELEMENT_THEORY></metadata><data><meanElements><EPOCH>2025-10-18T06:00:02.999808</EPOCH><MEAN_MOTION>15.22830596</MEAN_MOTION><ECCENTRICITY>.00063176</ECCENTRICITY><INCLINATION>51.8812</INCLINATION><RA_OF_ASC_NODE>78.4817</RA_OF_ASC_NODE><ARG_OF_PERICENTER>7.6202</ARG_OF_PERICENTER><MEAN_ANOMALY>56.8201</MEAN_ANOMALY></meanElements><tleParameters><EPHEMERIS_TYPE>0</EPHEMERIS_TYPE><CLASSIFICATION_TYPE>U</CLASSIFICATION_TYPE><NORAD_CAT_ID>65137</NORAD_CAT_ID><ELEMENT_SET_NO>999</ELEMENT_SET_NO><REV_AT_EPOCH>551</REV_AT_EPOCH><BSTAR>-.21887443E-1</BSTAR><MEAN_MOTION_DOT>-.486928E-2</MEAN_MOTION_DOT><MEAN_MOTION_DDOT>0</MEAN_MOTION_DDOT></tleParameters></data></segment></body></omm>
<omm id="CCSDS_OMM_VERS" version="2.0">
<header><CREATION_DATE/><ORIGINATOR/></header><body><segment><metadata><OBJECT_NAME>KUIPER-00099</OBJECT_NAME><OBJECT_ID>2025-171G</OBJECT_ID><CENTER_NAME>EARTH</CENTER_NAME><REF_FRAME>TEME</REF_FRAME><TIME_SYSTEM>UTC</TIME_SYSTEM><MEAN_ELEMENT_THEORY>SGP4</MEAN_ELEMENT_THEORY></metadata><data><meanElements><EPOCH>2025-10-17T18:35:55.437216</EPOCH><MEAN_MOTION>15.37970963</MEAN_MOTION><ECCENTRICITY>.00059887</ECCENTRICITY><INCLINATION>51.8744</INCLINATION><RA_OF_ASC_NODE>79.9469</RA_OF_ASC_NODE><ARG_OF_PERICENTER>358.6103</ARG_OF_PERICENTER><MEAN_ANOMALY>1.4866</MEAN_ANOMALY></meanElements><tleParameters><EPHEMERIS_TYPE>0</EPHEMERIS_TYPE><CLASSIFICATION_TYPE>U</CLASSIFICATION_TYPE><NORAD_CAT_ID>65138</NORAD_CAT_ID><ELEMENT_SET_NO>999</ELEMENT_SET_NO><REV_AT_EPOCH>1158</REV_AT_EPOCH><BSTAR>.19469723E-2</BSTAR><MEAN_MOTION_DOT>.74225E-3</MEAN_MOTION_DOT><MEAN_MOTION_DDOT>0</MEAN_MOTION_DDOT></tleParameters></data></segment></body></omm>
<omm id="CCSDS_OMM_VERS" version="2.0">
<header><CREATION_DATE/><ORIGINATOR/></header><body><segment><metadata><OBJECT_NAME>KUIPER-00100</OBJECT_NAME><OBJECT_ID>2025-171H</OBJECT_ID><CENTER_NAME>EARTH</CENTER_NAME><REF_FRAME>TEME</REF_FRAME><TIME_SYSTEM>UTC</TIME_SYSTEM><MEAN_ELEMENT_THEORY>SGP4</MEAN_ELEMENT_THEORY></metadata><data><meanElements><EPOCH>2025-10-18T02:37:35.054400</EPOCH><MEAN_MOTION>15.37772193</MEAN_MOTION><ECCENTRICITY>.0005414</ECCENTRICITY><INCLINATION>51.8734</INCLINATION><RA_OF_ASC_NODE>78.4265</RA_OF_ASC_NODE><ARG_OF_PERICENTER>12.2724</ARG_OF_PERICENTER><MEAN_ANOMALY>347.8394</MEAN_ANOMALY></meanElements><tleParameters><EPHEMERIS_TYPE>0</EPHEMERIS_TYPE><CLASSIFICATION_TYPE>U</CLASSIFICATION_TYPE><NORAD_CAT_ID>65139</NORAD_CAT_ID><ELEMENT_SET_NO>999</ELEMENT_SET_NO><REV_AT_EPOCH>1163</REV_AT_EPOCH><BSTAR>.20628554E-2</BSTAR><MEAN_MOTION_DOT>.78192E-3</MEAN_MOTION_DOT><MEAN_MOTION_DDOT>0</MEAN_MOTION_DDOT></tleParameters></data></segment></body></omm>
<omm id="CCSDS_OMM_VERS" version="2.0">
<header><CREATION_DATE/><ORIGINATOR/></header><body><segment><metadata><OBJECT_NAME>KUIPER-00102</OBJECT_NAME><OBJECT_ID>2025-171J</OBJECT_ID><CENTER_NAME>EARTH</CENTER_NAME><REF_FRAME>TEME</REF_FRAME><TIME_SYSTEM>UTC</TIME_SYSTEM><MEAN_ELEMENT_THEORY>SGP4</MEAN_ELEMENT_THEORY></metadata><data><meanElements><EPOCH>2025-10-18T02:59:42.637056</EPOCH><MEAN_MOTION>15.37319062</MEAN_MOTION><ECCENTRICITY>.0004912</ECCENTRICITY><INCLINATION>51.8738</INCLINATION><RA_OF_ASC_NODE>78.5228</RA_OF_ASC_NODE><ARG_OF_PERICENTER>20.9515</ARG_OF_PERICENTER><MEAN_ANOMALY>339.1672</MEAN_ANOMALY></meanElements><tleParameters><EPHEMERIS_TYPE>0</EPHEMERIS_TYPE><CLASSIFICATION_TYPE>U</CLASSIFICATION_TYPE><NORAD_CAT_ID>65140</NORAD_CAT_ID><ELEMENT_SET_NO>999</ELEMENT_SET_NO><REV_AT_EPOCH>1163</REV_AT_EPOCH><BSTAR>.17759409E-2</BSTAR><MEAN_MOTION_DOT>.66166E-3</MEAN_MOTION_DOT><MEAN_MOTION_DDOT>0</MEAN_MOTION_DDOT></tleParameters></data></segment></body></omm>
<omm id="CCSDS_OMM_VERS" version="2.0">
<header><CREATION_DATE/><ORIGINATOR/></header><body><segment><metadata><OBJECT_NAME>KUIPER-00103</OBJECT_NAME><OBJECT_ID>2025-171K</OBJECT_ID><CENTER_NAME>EARTH</CENTER_NAME><REF_FRAME>TEME</REF_FRAME><TIME_SYSTEM>UTC</TIME_SYSTEM><MEAN_ELEMENT_THEORY>SGP4</MEAN_ELEMENT_THEORY></metadata><data><meanElements><EPOCH>2025-10-18T06:00:02.999808</EPOCH><MEAN_MOTION>15.02514639</MEAN_MOTION><ECCENTRICITY>.0005202</ECCENTRICITY><INCLINATION>51.8921</INCLINATION><RA_OF_ASC_NODE>81.6602</RA_OF_ASC_NODE><ARG_OF_PERICENTER>24.6467</ARG_OF_PERICENTER><MEAN_ANOMALY>281.7387</MEAN_ANOMALY></meanElements><tleParameters><EPHEMERIS_TYPE>0</EPHEMERIS_TYPE><CLASSIFICATION_TYPE>U</CLASSIFICATION_TYPE><NORAD_CAT_ID>65141</NORAD_CAT_ID><ELEMENT_SET_NO>999</ELEMENT_SET_NO><REV_AT_EPOCH>584</REV_AT_EPOCH><BSTAR>.33812746E-2</BSTAR><MEAN_MOTION_DOT>.45456E-3</MEAN_MOTION_DOT><MEAN_MOTION_DDOT>0</MEAN_MOTION_DDOT></tleParameters></data></segment></body></omm>

</ndm>
