KUIPER-00095            
1 65134U 25171C   25291.12457685  .00059182  00000+0  15953-2 0  9991
2 65134  51.8731  78.5241 0004448  25.7785 334.3422 15.37239243 11649
KUIPER-00096            
1 65135U 25171D   25291.25003472 -.00544645  00000+0 -17225-1 0  9995
2 65135  51.8749  77.7865 0005733  23.2319  15.7487 15.34480807  5742
KUIPER-00097            
1 65136U 25171E   25291.25003472  .00073962  00000+0  27100-2 0  9997
2 65136  51.8792  78.2799 0003699  17.9873 117.7706 15.27329774  4829
KUIPER-00098            
1 65137U 25171F   25291.25003472 -.00486928  00000+0 -21887-1 0  9995
2 65137  51.8812  78.4817 0006317   7.6202  56.8201 15.22830596  5512
KUIPER-00099            
1 65138U 25171G   25290.77494719  .00074225  00000+0  19470-2 0  9997
2 65138  51.8744  79.9469 0005988 358.6103   1.4866 15.37970963 11584
KUIPER-00100            
1 65139U 25171H   25291.10943350  .00078192  00000+0  20629-2 0  9991
2 65139  51.8734  78.4265 0005414  12.2724 347.8394 15.37772193 11632
KUIPER-00102            
1 65140U 25171J   25291.12479904  .00066166  00000+0  17759-2 0  9992
2 65140  51.8738  78.5228 0004912  20.9515 339.1672 15.37319062 11639
KUIPER-00103            
1 65141U 25171K   25291.25003472  .00045456  00000+0  33813-2 0  9998
2 65141  51.8921  81.6602 0005202  24.6467 281.7387 15.02514639  5845
